format  = 'OEF1.1'       ! file format
rectype = 'ML'           ! record type (1L/ML)
refsys  = ECLM J2000     ! default reference system
END_OF_HEADER
2004FU4
! Equinoctial elements: a, e*sin(LP), e*cos(LP), tan(i/2)*sin(LN), tan(i/2)*cos(LN), mean long.
 EQU   1.31011244182310E+00   0.262584409017209   0.027043687517722    0.113339455097622    0.179608486184105 177.9212695680742
 MJD     53085.283475812 TDT
 MAG  17.602  0.150
! RMS    2.11609E-02   2.79915E-03   1.26519E-02   4.32243E-03   4.72067E-03   8.42492E-01
! EIG   2.93544E-07   4.21421E-07   2.39630E-05   8.04137E-05   1.49287E-02   2.54951E-02
! WEA  -0.79792  -0.08785   0.49171  -0.04938  -0.02776   0.33259
 COV   4.477834956196822E-04  3.578629528911358E-05 -2.450769374263383E-04
 COV   4.969990128017057E-05  4.158879745883222E-05 -5.873438193857393E-03
 COV   7.835243063252208E-06 -3.094082263492911E-05 -4.118545323269143E-06
 COV  -6.246033277723506E-06 -2.243349297513652E-03  1.600703020663661E-04
 COV  -8.721309531292940E-06 -9.035998745455783E-07  7.265507385400451E-03
 COV   1.868341506321283E-05  2.019048347984428E-05  2.234410838665634E-03
 COV   2.228474864679913E-05  2.868484077592804E-03  7.097928837456390E-01
 NOR   6.199348145833599E+11 -1.163349817189921E+12  1.115744898376132E+12
 NOR  -5.124819802185015E+11  2.124611187490519E+11 -9.213180593419602E+09
 NOR   4.035778253831845E+12 -2.614057561543053E+12 -2.692330837589592E+12
 NOR   1.454005638205438E+12  3.248586072318495E+10  2.154269180778002E+12
 NOR   1.042883641121087E+11 -1.382293606168331E+11 -2.085024914555803E+10
 NOR   7.637901247426597E+12 -3.836069092360772E+12 -2.235875308485063E+10
 NOR   1.931262806221940E+12  1.203954584682607E+10  2.615905641257265E+08
